NORAD_CAT_ID,OBJECT_NAME,OBJECT_TYPE,EPOCH,MEAN_MOTION,ECCENTRICITY,INCLINATION,RA_OF_ASC_NODE,ARG_OF_PERICENTER,MEAN_ANOMALY,BSTAR,MEAN_MOTION_DOT,MEAN_MOTION_DDOT,TLE_LINE0,TLE_LINE1,TLE_LINE2,SEMIMAJOR_AXIS,PERIOD,APOGEE,PERIGEE,DECAYED
56482.0,STARLINK-6220,PAYLOAD,2024-01-21 21:26:48,14.98371534,0.0002736,69.9999,285.5307,261.3998,98.6851,0.00040061,4.695e-05,0.0,0 STARLINK-6220,1 56482U 23064AL  24021.89361662  .00004695  00000-0  40061-3 0  9998,2 56482  69.9999 285.5307 0002736 261.3998  98.6851 14.98371534 39233,6950.064,96.104,573.831,570.028,0.0
56482.0,STARLINK-6220,PAYLOAD,2024-01-22 03:51:24,14.98322766,0.0002729,69.9997,284.8568,266.4278,93.6569,-0.00015278,-1.915e-05,0.0,0 STARLINK-6220,1 56482U 23064AL  24022.16069745 -.00001915  00000-0 -15278-3 0  9992,2 56482  69.9997 284.8568 0002729 266.4278  93.6569 14.98322766 39639,6950.215,96.107,573.977,570.184,0.0
56482.0,STARLINK-6220,PAYLOAD,2024-01-22 21:28:53,14.98320454,0.0002591,70.0005,283.0069,261.8485,98.238,-0.00027897,-3.419e-05,0.0,0 STARLINK-6220,1 56482U 23064AL  24022.89506428 -.00003419  00000-0 -27897-3 0  9997,2 56482  70.0005 283.0069 0002591 261.8485  98.2380 14.98320454 39381,6950.222,96.108,573.888,570.287,0.0
56482.0,STARLINK-6220,PAYLOAD,2024-01-23 02:17:17,14.98322862,0.00025,70.0004,282.5019,253.9669,106.1215,-0.00024144,-2.972e-05,0.0,0 STARLINK-6220,1 56482U 23064AL  24023.09534211 -.00002972  00000-0 -24144-3 0  9996,2 56482  70.0004 282.5019 0002500 253.9669 106.1215 14.98322862 39410,6950.215,96.107,573.818,570.342,0.0
56482.0,STARLINK-6220,PAYLOAD,2024-01-23 23:07:01,14.98350603,0.0003545,69.9983,280.3094,277.1263,82.9493,-0.00042621,-5.178e-05,0.0,0 STARLINK-6220,1 56482U 23064AL  24023.96321146 -.00005178  00000-0 -42621-3 0  9994,2 56482  69.9983 280.3094 0003545 277.1263  82.9493 14.98350603 39547,6950.129,96.106,574.458,569.53,0.0
56482.0,STARLINK-6220,PAYLOAD,2024-01-24 02:19:17,14.98351451,0.0002606,69.9999,279.9759,254.7554,105.3317,-0.00029385,-3.599e-05,0.0,0 STARLINK-6220,1 56482U 23064AL  24024.09672518 -.00003599  00000-0 -29385-3 0  9998,2 56482  69.9999 279.9759 0002606 254.7554 105.3317 14.98351451 39926,6950.127,96.106,573.803,570.18,0.0
56482.0,STARLINK-6220,PAYLOAD,2024-01-24 19:56:47,14.9831376,0.0002563,70.0001,278.1253,251.218,108.8701,6.3946e-05,6.7e-06,0.0,0 STARLINK-6220,1 56482U 23064AL  24024.83110406  .00000670  00000-0  63946-4 0  9990,2 56482  70.0001 278.1253 0002563 251.2180 108.8701 14.98313760 40032,6950.243,96.108,573.889,570.327,0.0
56482.0,STARLINK-6220,PAYLOAD,2024-01-24 21:32:55,14.98313738,0.0002564,70.0001,277.957,251.2191,108.869,6.1596e-05,6.42e-06,0.0,0 STARLINK-6220,1 56482U 23064AL  24024.89786474  .00000642  00000-0  61596-4 0  9998,2 56482  70.0001 277.9570 0002564 251.2191 108.8690 14.98313738 39685,6950.243,96.108,573.89,570.326,0.0
56482.0,STARLINK-6220,PAYLOAD,2024-01-25 02:21:19,14.98315136,0.0002548,70.0002,277.4522,249.3269,110.7617,7.2003e-05,7.66e-06,0.0,0 STARLINK-6220,1 56482U 23064AL  24025.09814534  .00000766  00000-0  72003-4 0  9992,2 56482  70.0002 277.4522 0002548 249.3269 110.7617 14.98315136 39713,6950.239,96.108,573.875,570.333,0.0
56482.0,STARLINK-6220,PAYLOAD,2024-01-25 19:58:48,14.98329525,0.0002483,70.0002,275.6001,249.7656,110.3236,-9.3378e-06,-2.04e-06,0.0,0 STARLINK-6220,1 56482U 23064AL  24025.83250180 -.00000204  00000-0 -93378-5 0  9993,2 56482  70.0002 275.6001 0002483 249.7656 110.3236 14.98329525 40180,6950.194,96.107,573.785,570.334,0.0
56482.0,STARLINK-6220,PAYLOAD,2024-01-25 21:34:56,14.98327807,0.0002593,70.0002,275.4324,252.8259,107.2616,-9.3961e-06,-2.05e-06,0.0,0 STARLINK-6220,1 56482U 23064AL  24025.89926284 -.00000205  00000-0 -93961-5 0  9993,2 56482  70.0002 275.4324 0002593 252.8259 107.2616 14.98327807 39830,6950.2,96.107,573.867,570.262,0.0
56482.0,STARLINK-6220,PAYLOAD,2024-01-26 02:23:20,14.98328159,0.0002508,70.0001,274.9266,252.7069,107.3816,-2.3958e-05,-3.79e-06,0.0,0 STARLINK-6220,1 56482U 23064AL  24026.09954350 -.00000379  00000-0 -23958-4 0  9991,2 56482  70.0001 274.9266 0002508 252.7069 107.3816 14.98328159 39869,6950.199,96.107,573.807,570.32,0.0
56482.0,STARLINK-6220,PAYLOAD,2024-01-27 02:25:21,14.9833203,0.0002726,69.9992,272.4011,257.241,102.8445,9.8426e-05,1.082e-05,0.0,0 STARLINK-6220,1 56482U 23064AL  24027.10093762  .00001082  00000-0  98426-4 0  9997,2 56482  69.9992 272.4011 0002726 257.2410 102.8445 14.98332030 40377,6950.187,96.107,573.946,570.157,0.0
56482.0,STARLINK-6220,PAYLOAD,2024-01-27 21:38:58,14.98330843,0.0002606,69.9994,270.3814,257.4411,102.6456,1.8002e-05,1.22e-06,0.0,0 STARLINK-6220,1 56482U 23064AL  24027.90206027  .00000122  00000-0  18002-4 0  9991,2 56482  69.9994 270.3814 0002606 257.4411 102.6456 14.98330843 40131,6950.19,96.107,573.867,570.244,0.0
56482.0,STARLINK-6220,PAYLOAD,2024-01-28 02:27:22,14.98331191,0.000261,69.9994,269.8763,264.5728,95.5133,1.7202e-05,1.12e-06,0.0,0 STARLINK-6220,1 56482U 23064AL  24028.10234032  .00000112  00000-0  17202-4 0  9991,2 56482  69.9994 269.8763 0002610 264.5728  95.5133 14.98331191 40524,6950.189,96.107,573.868,570.24,0.0
56482.0,STARLINK-6220,PAYLOAD,2024-01-28 05:39:38,14.98334038,0.0002667,69.9992,269.5386,270.3033,89.7821,4.3719e-05,4.29e-06,0.0,0 STARLINK-6220,1 56482U 23064AL  24028.23585778  .00000429  00000-0  43719-4 0  9994,2 56482  69.9992 269.5386 0002667 270.3033  89.7821 14.98334038 40180,6950.18,96.107,573.899,570.192,0.0
56482.0,STARLINK-6220,PAYLOAD,2024-01-28 21:40:59,14.98329753,0.0002537,69.9993,267.855,268.2688,91.8181,-5.1856e-05,-7.12e-06,0.0,0 STARLINK-6220,1 56482U 23064AL  24028.90346223 -.00000712  00000-0 -51856-4 0  9996,2 56482  69.9993 267.8550 0002537 268.2688  91.8181 14.98329753 40285,6950.194,96.107,573.822,570.295,0.0
56482.0,STARLINK-6220,PAYLOAD,2024-01-29 00:53:15,14.98331306,0.0002505,69.9993,267.5183,267.864,92.2232,-3.0912e-05,-4.62e-06,0.0,0 STARLINK-6220,1 56482U 23064AL  24029.03698050 -.00000462  00000-0 -30912-4 0  9991,2 56482  69.9993 267.5183 0002505 267.8640  92.2232 14.98331306 40304,6950.189,96.107,573.795,570.313,0.0
56482.0,STARLINK-6220,PAYLOAD,2024-01-30 00:55:15,14.98330344,0.0002516,69.9992,264.9934,268.3925,91.6945,1.861e-05,1.29e-06,0.0,0 STARLINK-6220,1 56482U 23064AL  24030.03837857  .00000129  00000-0  18610-4 0  9992,2 56482  69.9992 264.9934 0002516 268.3925  91.6945 14.98330344 40813,6950.192,96.107,573.805,570.308,0.0
56482.0,STARLINK-6220,PAYLOAD,2024-01-30 21:45:00,14.98328978,0.0002522,69.9992,262.8058,250.3951,109.6936,3.9815e-06,-4.5e-07,0.0,0 STARLINK-6220,1 56482U 23064AL  24030.90625859 -.00000045  00000-0  39815-5 0  9994,2 56482  69.9992 262.8058 0002522 250.3951 109.6936 14.98328978 40588,6950.196,96.107,573.814,570.308,0.0
56482.0,STARLINK-6220,PAYLOAD,2024-01-31 00:57:16,14.98329913,0.0002713,69.9983,262.4676,265.1661,94.9188,-8.1336e-07,-1.03e-06,0.0,0 STARLINK-6220,1 56482U 23064AL  24031.03977854 -.00000103  00000-0 -81336-6 0  9996,2 56482  69.9983 262.4676 0002713 265.1661  94.9188 14.98329913 40961,6950.193,96.107,573.944,570.173,0.0
56482.0,STARLINK-6220,PAYLOAD,2024-02-01 00:59:17,14.98328449,0.0002757,69.9983,259.9431,267.8886,92.1958,1.7611e-05,1.17e-06,0.0,0 STARLINK-6220,1 56482U 23064AL  24032.04117856  .00000117  00000-0  17611-4 0  9992,2 56482  69.9983 259.9431 0002757 267.8886  92.1958 14.98328449 41113,6950.198,96.107,573.979,570.147,0.0
56482.0,STARLINK-6220,PAYLOAD,2024-02-02 01:01:18,14.98329111,0.0002826,69.9981,257.4187,267.0884,92.9952,-1.4901e-05,-2.71e-06,0.0,0 STARLINK-6220,1 56482U 23064AL  24033.04257979 -.00000271  00000-0 -14901-4 0  9996,2 56482  69.9981 257.4187 0002826 267.0884  92.9952 14.98329111 41264,6950.196,96.107,574.025,570.097,0.0
56482.0,STARLINK-6220,PAYLOAD,2024-02-02 21:51:03,14.98330196,0.0002794,69.9983,255.2302,267.364,92.7199,3.5502e-05,3.31e-06,0.0,0 STARLINK-6220,1 56482U 23064AL  24033.91045759  .00000331  00000-0  35502-4 0  9998,2 56482  69.9983 255.2302 0002794 267.3640  92.7199 14.98330196 41039,6950.192,96.107,573.999,570.115,0.0
56482.0,STARLINK-6220,PAYLOAD,2024-02-03 01:03:19,14.98330917,0.0002762,69.9984,254.894,268.7733,91.311,4.2575e-05,4.15e-06,0.0,0 STARLINK-6220,1 56482U 23064AL  24034.04397702  .00000415  00000-0  42575-4 0  9992,2 56482  69.9984 254.8940 0002762 268.7733  91.3110 14.98330917 41417,6950.19,96.107,573.975,570.135,0.0
56482.0,STARLINK-6220,PAYLOAD,2024-02-03 13:52:24,14.98330869,0.0002676,69.9984,253.5474,265.9177,94.1676,1.1597e-05,4.5e-07,0.0,0 STARLINK-6220,1 56482U 23064AL  24034.57805802  .00000045  00000-0  11597-4 0  9994,2 56482  69.9984 253.5474 0002676 265.9177  94.1676 14.98330869 41133,6950.19,96.107,573.915,570.195,0.0
56482.0,STARLINK-6220,PAYLOAD,2024-02-03 21:53:04,14.98330612,0.0002692,69.9984,252.7059,265.122,94.9632,9.0669e-06,1.5e-07,0.0,0 STARLINK-6220,1 56482U 23064AL  24034.91185777  .00000015  00000-0  90669-5 0  9999,2 56482  69.9984 252.7059 0002692 265.1220  94.9632 14.98330612 41183,6950.191,96.107,573.927,570.185,0.0
56482.0,STARLINK-6220,PAYLOAD,2024-02-04 01:05:20,14.98330924,0.0002688,69.9984,252.3692,265.3692,94.716,1.1814e-05,4.8e-07,0.0,0 STARLINK-6220,1 56482U 23064AL  24035.04537738  .00000048  00000-0  11814-4 0  9992,2 56482  69.9984 252.3692 0002688 265.3692  94.7160 14.98330924 41564,6950.19,96.107,573.923,570.187,0.0
56482.0,STARLINK-6220,PAYLOAD,2024-02-04 21:55:05,14.98332979,0.0002713,69.9983,250.1809,264.7363,95.3486,4.6087e-06,-3.8e-07,0.0,0 STARLINK-6220,1 56482U 23064AL  24035.91325469 -.00000038  00000-0  46087-5 0  9995,2 56482  69.9983 250.1809 0002713 264.7363  95.3486 14.98332979 41331,6950.184,96.107,573.934,570.163,0.0
56482.0,STARLINK-6220,PAYLOAD,2024-02-05 07:31:53,14.9833127,0.0002739,69.9982,249.1708,268.7691,91.3154,-9.7179e-06,-2.09e-06,0.0,0 STARLINK-6220,1 56482U 23064AL  24036.31381566 -.00000209  00000-0 -97179-5 0  9999,2 56482  69.9982 249.1708 0002739 268.7691  91.3154 14.98331270 41759,6950.189,96.107,573.958,570.15,0.0
